[{"OBJECT_NAME":"CUAVA-2","OBJECT_ID":"2024-149BM","EPOCH":"2026-03-09T11:16:09.234912","MEAN_MOTION":15.33611708,"ECCENTRICITY":0.00056694,"INCLINATION":97.3769,"RA_OF_ASC_NODE":149.9859,"ARG_OF_PERICENTER":291.2139,"MEAN_ANOMALY":68.8497,"EPHEMERIS_TYPE":0,"CLASSIFICATION_TYPE":"U","NORAD_CAT_ID":60527,"ELEMENT_SET_NO":999,"REV_AT_EPOCH":8687,"BSTAR":0.00047570318,"MEAN_MOTION_DOT":0.000154,"MEAN_MOTION_DDOT":0},{"OBJECT_NAME":"STARLINK-35111","OBJECT_ID":"2025-195F","EPOCH":"2026-03-09T22:12:57.193344","MEAN_MOTION":15.30223245,"ECCENTRICITY":7.331e-5,"INCLINATION":53.1584,"RA_OF_ASC_NODE":256.8121,"ARG_OF_PERICENTER":85.083,"MEAN_ANOMALY":275.0254,"EPHEMERIS_TYPE":0,"CLASSIFICATION_TYPE":"U","NORAD_CAT_ID":65463,"ELEMENT_SET_NO":999,"REV_AT_EPOCH":3003,"BSTAR":0.0009742998,"MEAN_MOTION_DOT":0.00028629,"MEAN_MOTION_DDOT":0}]
